NUSAT-1 (FRESCO)        
1 41557U 16033B   23155.05441585  .00057698  00000+0  76775-3 0  9992
2 41557  97.3887 262.4360 0007940 182.8738 177.2473 15.57954430391586
NUSAT-2 (BATATA)        
1 41558U 16033C   23155.06824968  .00068354  00000+0  79527-3 0  9993
2 41558  97.4166 270.4335 0007657 177.9122 182.2168 15.61461676391921
CARTOSAT-2C             
1 41599U 16040A   23155.11045973  .00005778  00000+0  27656-3 0  9990
2 41599  97.4370 215.5651 0013196  41.6918 318.5320 15.19272547385320
SATHYABAMASAT           
1 41600U 16040B   23155.09657783  .00215500  00000+0  13015-2 0  9997
2 41600  97.1547 209.0797 0006472 232.6853 127.3824 15.77000224387180
LAPAN-A3                
1 41603U 16040E   23155.11081498  .00002531  00000+0  11225-3 0  9997
2 41603  97.1661 181.2793 0012847  11.2159 348.9362 15.22392123385504
BIROS                   
1 41604U 16040F   23154.87855341  .00006316  00000+0  22543-3 0  9996
2 41604  97.1634 191.0164 0009303 336.0428  24.0379 15.29166920386069
SWAYAM                  
1 41607U 16040J   23155.11290815  .00116530  00000+0  11824-2 0  9995
2 41607  97.1518 205.6794 0004833 242.0159 118.0612 15.64833323386964
BEESAT-4                
1 41619U 16040W   23154.83279261  .00068787  00000+0  91523-3 0  9993
2 41619  97.1585 204.3165 0003575 252.7884 107.2981 15.57941573374790
3CAT-2                  
1 41732U 16051B   23155.06341970  .00037025  00000+0  60934-3 0  9997
2 41732  97.3927  86.5090 0011243 100.1350 260.1171 15.52193979379441
PRATHAM                 
1 41783U 16059A   23154.89979502  .00000798  00000+0  16001-3 0  9992
2 41783  97.8692 186.6053 0034033 140.7612 219.6067 14.63937008357039
ALSAT 1N                
1 41789U 16059G   23155.03789535  .00001000  00000+0  19236-3 0  9990
2 41789  97.8685 192.1013 0029128 121.3976 239.0083 14.65397667357343
CARTOSAT-2D             
1 41948U 17008A   23154.87762792  .00005372  00000+0  25769-3 0  9993
2 41948  97.4150 214.3801 0006731 166.5653 193.5762 15.19283566349153
NAYIF-1 (EO-88)         
1 42017U 17008BX  23154.95539512  .00172387  00000+0  11310-2 0  9999
2 42017  97.2101 225.7471 0002573 188.7474 171.3747 15.75238798351385
ZHUHAI-1 02 (CAS-4B)    
1 42759U 17034B   23155.08888884  .00006866  00000+0  34998-3 0  9991
2 42759  43.0136 188.4919 0010485  10.6201 349.4867 15.17219022329649
ZHUHAI-1 01 (CAS-4A)    
1 42761U 17034D   23155.10503548  .00006550  00000+0  33433-3 0  9991
2 42761  43.0132 186.9336 0011122  12.4418 347.6703 15.17225885329657
UCLSAT                  
1 42765U 17036A   23154.83976212  .00046155  00000+0  81818-3 0  9993
2 42765  97.1415 193.8863 0008392 133.1241 227.0714 15.50083095331813
NIUSAT                  
1 42766U 17036B   23154.86684119  .00023218  00000+0  60729-3 0  9992
2 42766  97.1567 186.4819 0012037 143.6722 216.5344 15.38671790330566
CARTOSAT-2E             
1 42767U 17036C   23155.09241264  .00005490  00000+0  26322-3 0  9992
2 42767  97.4045 214.9527 0006885 222.7005 137.3695 15.19292012329754
AALTO-1                 
1 42775U 17036L   23154.64392406  .00014833  00000+0  43748-3 0  9998
2 42775  97.1523 185.0838 0011490 145.8904 214.3081 15.35028862330446
URSA MAIOR              
1 42776U 17036M   23154.85372244  .00018561  00000+0  51543-3 0  9994
2 42776  97.1534 186.5858 0011282 142.1614 218.0426 15.36872701330549
COMPASS 2               
1 42777U 17036N   23155.06658044  .00356503  00000+0  14746-2 0  9998
2 42777  97.1376 201.0561 0006456 179.7017 180.4258 15.84932054331455
MAX VALIER SAT          
1 42778U 17036P   23154.89865364  .00021267  00000+0  56485-3 0  9997
2 42778  97.1557 190.0613 0010213 140.5636 219.6355 15.38238530330685
PEGASUS                 
1 42784U 17036V   23155.08075833  .00035102  00000+0  71276-3 0  9998
2 42784  97.1473 192.6657 0009226 136.2554 223.9429 15.46217471330958
SUCHAI                  
1 42788U 17036Z   23154.86046153  .00062345  00000+0  90796-3 0  9997
2 42788  97.1452 196.0322 0008353 136.4036 223.7881 15.55489811331223
SKCUBE                  
1 42789U 17036AA  23154.63162022  .00044973  00000+0  78579-3 0  9999
2 42789  97.1457 194.3180 0008599 133.8079 226.3886 15.50496967331018
VZLUSAT-1               
1 42790U 17036AB  23154.65369828  .02554529  22610-5  16497-2 0  9998
2 42790  97.1256 203.3372 0011704 241.7973 118.2134 16.17257524331591
ROBUSTA 1B              
1 42792U 17036AD  23154.88090337  .00055563  00000+0  86439-3 0  9990
2 42792  97.1425 195.7530 0007740 132.7296 227.4611 15.53709455331141
D-SAT                   
1 42794U 17036AF  23154.88986828  .00004747  00000+0  37798-3 0  9993
2 42794  97.4635 147.5684 0116376 347.4658  12.3675 14.95607016323942
NORSAT 2                
1 42828U 17042D   23154.87483150  .00003455  00000+0  31542-3 0  9993
2 42828  97.3944 356.3942 0011678 264.1945  95.7945 14.95627280320635
TECHNOSAT               
1 42829U 17042E   23155.05852508  .00001741  00000+0  16992-3 0  9990
2 42829  97.3895 353.2882 0011824 269.8918  90.0948 14.93562143320539
2017-042F               
1 42830U 17042F   23155.05748691  .00010753  00000+0  82389-3 0  9995
2 42830  97.4073   0.8674 0011481 230.1641 129.8575 15.01961990320908
FLYING LAPTOP           
1 42831U 17042G   23154.88651215  .00001503  00000+0  14927-3 0  9997
2 42831  97.3920 353.4349 0011856 271.3980  88.5882 14.93047382320502
CORVUS BC2              
1 42846U 17042X   23154.80584987  .00001797  00000+0  17065-3 0  9997
2 42846  97.3872 356.7731 0007433 256.0447 103.9948 14.94653999320726
CORVUS BC1              
1 42847U 17042Y   23154.79789671  .00001895  00000+0  17924-3 0  9996
2 42847  97.3873 357.1199 0007016 254.5001 105.5446 14.94744137320734
CZ-4C R/B               
1 43012U 17072C   23154.86784070  .00000333  00000+0  78693-4 0  9997
2 43012  98.6476 210.2120 0125706 322.3756  36.8696 14.56731996295015
RADFXSAT (FOX-1B)       
1 43017U 17073E   23154.92121184  .00006102  00000+0  42592-3 0  9999
2 43017  97.6325  39.7860 0235547 112.9448 249.6811 14.85890467299213
EAGLESAT 1              
1 43018U 17073F   23154.91082229  .00012680  00000+0  80299-3 0  9999
2 43018  97.6387  43.5548 0218447 100.9099 261.6782 14.91400247299319
INS-1C                  
1 43116U 18004F   23154.95894909  .00045239  00000+0  79041-3 0  9992
2 43116  97.3377 236.2992 0006576 169.3016 190.8377 15.50514526300323
FLOCK 3P'-3             
1 43119U 18004J   23154.99147677  .00345555  00000+0  22772-2 0  9994
2 43119  97.3196 234.0327 0011964 233.5842 126.4320 15.74576944300209
FLOCK 3P'-2             
1 43120U 18004K   23154.72856136  .00189820  00000+0  23320-2 0  9995
2 43120  97.3321 232.1985 0010055 218.3747 141.6795 15.59595397300048
FLOCK 3P'-4             
1 43122U 18004M   23154.73521327  .00177627  00000+0  24656-2 0  9994
2 43122  97.3344 232.2315 0010197 220.3675 139.6824 15.56363253300033
PICSAT                  
1 43132U 18004X   23154.74427419  .00061963  00000+0  87737-3 0  9998
2 43132  97.3297 237.6014 0006040 170.9746 189.1618 15.56276683300454
CNUSAIL-1               
1 43133U 18004Y   23154.73804606  .00024394  00000+0  56715-3 0  9994
2 43133  97.3286 232.2082 0007055 177.5289 182.5995 15.42296920300132
2018-004Z               
1 43134U 18004Z   23154.98042815  .00043398  00000+0  76466-3 0  9998
2 43134  97.3310 235.7404 0006289 171.3156 188.8205 15.50287066300357
FOX-1D (AO-92)          
1 43137U 18004AC  23154.73242311  .00027603  00000+0  58287-3 0  9999
2 43137  97.3292 233.7871 0006544 176.2380 183.8919 15.45140561300238
XIAOXIANG-2             
1 43155U 18008A   23155.06569370  .00015883  00000+0  63462-3 0  9995
2 43155  97.2991 207.9034 0012262   3.2375 356.8940 15.25139350296652
ZHOU ENLAI              
1 43156U 18008B   23155.08039862  .00018490  00000+0  72712-3 0  9991
2 43156  97.3038 208.0133 0009912   5.4771 354.6574 15.25663409296588
QUANTUTONG 1            
1 43158U 18008D   23155.12206759  .00012790  00000+0  55174-3 0  9999
2 43158  97.3040 205.0532 0010117   9.6503 350.4926 15.22622900296438
S-NET D                 
1 43186U 18014G   23154.71148882  .00002440  00000+0  19860-3 0  9996
2 43186  97.6344  58.7715 0014493 202.3997 157.6595 15.00383712291531
S-NET B                 
1 43187U 18014H   23154.71251205  .00002483  00000+0  20209-3 0  9997
2 43187  97.6333  58.7025 0014695 200.8125 159.2503 15.00373214291537
S-NET A                 
1 43188U 18014J   23154.71265677  .00002503  00000+0  20367-3 0  9994
2 43188  97.6340  58.7894 0014700 200.9401 159.1222 15.00376076291531
S-NET C                 
1 43189U 18014K   23154.71475898  .00002605  00000+0  21181-3 0  9991
2 43189  97.6323  58.6828 0015048 197.5139 162.5568 15.00359592290088
SHAONIAN XING           
1 43199U 18015H   23155.04914208  .00151404  00000+0  10971-2 0  9999
2 43199  97.5426 313.6667 0008875 216.8619 143.2035 15.72929252297756
LUOJIA-1 01             
1 43485U 18048B   23155.06164895  .00002027  00000+0  28210-3 0  9996
2 43485  97.9057 235.3979 0011923 138.2319 221.9804 14.78837121269807
CZ-4B R/B               
1 43656U 18081B   23155.08225632  .00000342  00000+0  12129-3 0  9992
2 43656  99.4455 323.3623 0206949 214.5117 144.2482 14.30835226240639
CUBEBEL-1 (BSUSAT-1)    
1 43666U 18083E   23155.05790031  .00029665  00000+0  81238-3 0  9998
2 43666  97.3804 186.5907 0011065 158.8399 201.3305 15.37218214255189
CHANGSHAGAOXIN (TY 4-01)
1 43669U 18083H   23155.06336776  .00022756  00000+0  69399-3 0  9992
2 43669  97.3792 181.2962 0008776 156.3220 203.8428 15.33914483254934
TEN-KOH                 
1 43677U 18084G   23154.87830059  .00002917  00000+0  28604-3 0  9994
2 43677  98.0117 294.5246 0014999 187.1761 172.9245 14.92964988250074
DIWATA-2B               
1 43678U 18084H   23155.05630596  .00001292  00000+0  12881-3 0  9995
2 43678  98.0212 298.7629 0009132 197.4213 162.6694 14.93384743250307
